satname,norad_id,inclination_deg,eccentricity,mean_motion_rev_per_day,perigee_km,apogee_km,l1,l2
STARLINK-1417,45693,53.0475,0.0005967,15.15617683,514.9883805131494,523.2195478798212,1 45693U 20035AN  26134.66947721  .00015443  00000+0  81724-3 0  9996,2 45693  53.0475 114.5070 0005967  62.2670 297.8927 15.15617683328898
STARLINK-1420,45695,53.0465,0.000669,15.65568946,367.08739854723535,376.11855063323674,1 45695U 20035AQ  26134.52740059  .00032977  00000+0  32603-3 0  9991,2 45695  53.0465  61.6011 0006690  62.1170 298.0522 15.65568946329633
STARLINK-1422,45696,53.1569,0.0003618,15.32990491,464.4192747209263,469.3723404604989,1 45696U 20035AR  26134.90230720  .00029463  00000+0  91953-3 0  9992,2 45696  53.1569 101.6278 0003618  72.9201 287.2197 15.32990491329110
STARLINK-1351,45697,53.0448,0.0006401,15.63803347,372.358750472099,381.00627040936615,1 45697U 20035AS  26134.77936259  .00068088  00000+0  71271-3 0  9995,2 45697  53.0448  60.5157 0006401  70.8684 289.3023 15.63803347329679
STARLINK-1400,45700,53.0437,0.0005222,15.61349501,380.22692991955864,387.28905304866475,1 45700U 20035AV  26134.95684492  .00068723  00000+0  79156-3 0  9995,2 45700  53.0437  61.8867 0005222  34.7380 325.3973 15.61349501329665
STARLINK-1403,45701,53.1554,0.0003009,15.3199103,467.8120211962487,471.9331533658751,1 45701U 20035AW  26134.89899009  .00026700  00000+0  86119-3 0  9997,2 45701  53.1554  89.0134 0003009  85.7907 274.3438 15.31991030329282
STARLINK-1407,45703,53.0299,0.0002651,15.70120397,356.7667106930239,360.3385035227129,1 45703U 20035AY  26134.63298325  .00039292  00000+0  32206-3 0  9993,2 45703  53.0299 351.6210 0002651 358.0747   2.0258 15.70120397330621
STARLINK-1411,45706,53.0354,0.0002019,15.79682336,329.98532957467523,332.69461637636323,1 45706U 20035BB  26135.00002315  .00060738  00000+0  32630-3 0  9990,2 45706  53.0354  13.4123 0002019 155.6169 114.7624 15.79682336  5890
STARLINK-1423,45710,53.0443,0.0007567,15.6649255,363.8440955972719,374.05513648198576,1 45710U 20035BF  26134.76400767  .00035103  00000+0  33395-3 0  9997,2 45710  53.0443  60.0488 0007567  35.4343 324.7173 15.66492550329667
STARLINK-1433,45711,53.0443,0.0007583,15.66102107,364.9538086138318,375.1881408282943,1 45711U 20035BG  26134.87064430  .00047836  00000+0  45959-3 0  9998,2 45711  53.0443  58.0504 0007583  41.0773 319.0811 15.66102107329709
STARLINK-1434,45712,53.0516,0.000371,15.32396868,466.1232922829522,471.20361822074847,1 45712U 20035BH  26134.55533456  .00024854  00000+0  79247-3 0  9995,2 45712  53.0516  73.5374 0003710  38.4673 321.6591 15.32396868329475
STARLINK-1465,45731,53.0461,0.0001481,15.60374788,385.5717951214592,387.5755024156251,1 45731U 20038B   26134.38354217  .00041904  00000+0  50536-3 0  9991,2 45731  53.0461 265.4175 0001481 252.9589 107.1261 15.60374788326609
STARLINK-1471,45735,53.044,0.0002878,15.52320001,408.00064902629583,411.9078743565251,1 45735U 20038F   26134.96489943  .00014522  00000+0  24162-3 0  9996,2 45735  53.0440 183.6309 0002878  58.8717 301.2574 15.52320001327815
STARLINK-1480,45741,53.0496,0.0004673,15.61911893,378.97566493088834,385.2938148990115,1 45741U 20038M   26134.74972187  .00062749  00000+0  70835-3 0  9998,2 45741  53.0496 257.2935 0004673 308.4811  51.5782 15.61911893326764
STARLINK-1500,45744,53.0367,0.0002447,15.38087114,450.0949811411656,453.43753579586064,1 45744U 20038Q   26134.56720016  .00013236  00000+0  35759-3 0  9996,2 45744  53.0367 242.8995 0002447  95.7800 264.3482 15.38087114326946
STARLINK-1504,45746,53.0207,0.0003241,15.57456523,392.82602705235877,397.2163882025434,1 45746U 20038S   26134.41874857  .00021866  00000+0  29828-3 0  9993,2 45746  53.0207 184.0011 0003241  33.7951 326.3265 15.57456523327741
STARLINK-1506,45747,53.074,0.0003877,15.27898442,479.4360195173849,484.7554439775822,1 45747U 20038T   26134.63027448  .00004548  00000+0  17742-3 0  9994,2 45747  53.0740 256.9230 0003877 103.8165 256.3265 15.27898442326767
STARLINK-1464,45751,53.0468,0.0002126,15.52358372,408.3992786825256,411.2855275247257,1 45751U 20038X   26134.61329609  .00046321  00000+0  75018-3 0  9996,2 45751  53.0468 249.2168 0002126 324.7856  35.3012 15.52358372326868
STARLINK-1477,45754,53.0493,0.0001343,15.1780309,511.55630808271235,513.4071282704153,1 45754U 20038AA  26134.75322624  .00017748  00000+0  88041-3 0  9995,2 45754  53.0493 271.8916 0001343 171.6774 188.4242 15.17803090326553
STARLINK-1478,45755,53.046,0.0002742,15.65682052,369.42721038994205,373.12858952107854,1 45755U 20038AB  26134.65065389  .00031450  00000+0  31009-3 0  9995,2 45755  53.0460 236.1902 0002742 349.5330  10.5628 15.65682052327038
STARLINK-1493,45759,53.0477,0.0005426,15.61315614,380.18677452676,387.52488914786863,1 45759U 20038AF  26134.87046257  .00058324  00000+0  67440-3 0  9993,2 45759  53.0477 244.1255 0005426 300.2202  59.8273 15.61315614326948
STARLINK-1494,45760,53.0401,0.0007157,15.92897952,289.4025868816716,298.9533385192808,1 45760U 20038AG  26135.00002315  .00224609  30199-4  63839-3 0  9994,2 45760  53.0401 177.7103 0007157 359.9988 318.8480 15.92897952  6032
STARLINK-1502,45764,53.047,0.000588,15.57667715,390.4267236740234,398.3912377473389,1 45764U 20038AL  26134.61014265  .00052833  00000+0  70262-3 0  9990,2 45764  53.0470 248.5655 0005880 267.9777  92.0561 15.57667715326877
STARLINK-1470,45772,53.0439,0.0002697,15.33502706,463.5257931667411,467.217181644849,1 45772U 20038AU  26134.67824841  .00026064  00000+0  80213-3 0  9998,2 45772  53.0439 226.6840 0002697 311.2215  48.8553 15.33502706327184
STARLINK-1482,45773,53.1574,0.0002641,15.35809329,456.7120604708716,460.3231814416613,1 45773U 20038AV  26134.59652535  .00028206  00000+0  80585-3 0  9991,2 45773  53.1574 243.6102 0002641 299.9516  60.1224 15.35809329326950
STARLINK-1496,45780,53.0463,0.0007037,15.59258534,385.0391805785739,394.56437761627603,1 45780U 20038BC  26134.50389553  .00035255  00000+0  44457-3 0  9997,2 45780  53.0463 220.1604 0007037 357.4968   2.6008 15.59258534327242
STARLINK-1513,45786,53.1586,0.0001137,15.31707115,469.94007096012956,471.49750076583496,1 45786U 20038BJ  26134.56412644  .00000847  00000+0  39063-4 0  9994,2 45786  53.1586 244.8567 0001137  84.8689 275.2442 15.31707115326931
STARLINK-1522,46027,53.0627,0.0002403,15.12107117,528.1151329660534,531.4350755233536,1 46027U 20055A   26134.44524728  .00012528  00000+0  73499-3 0  9995,2 46027  53.0627 189.4173 0002403 340.0006  20.0891 15.12107117318827
STARLINK-1523,46028,53.1598,0.0001151,15.30208099,474.4020693319999,475.9797054116725,1 46028U 20055B   26134.42486391  .00001626  00000+0  67008-4 0  9994,2 46028  53.1598 181.3705 0001151  92.0253 268.0880 15.30208099318963
STARLINK-1526,46029,53.1593,0.0001182,15.30205538,474.38846973930595,476.00859825954285,1 46029U 20055C   26134.48386296  .00003204  00000+0  12023-3 0  9994,2 46029  53.1593 181.1084 0001182 106.9067 253.2063 15.30205538318963
STARLINK-1555,46032,53.1599,0.000124,15.30202652,474.35733636205714,476.05696571151475,1 46032U 20055F   26134.40273854  .00001293  00000+0  55783-4 0  9992,2 46032  53.1599 181.4664 0001240  80.4114 279.7027 15.30202652318950
STARLINK-1556,46033,53.1596,0.0001173,15.3019968,474.4121265719914,476.01992319162946,1 46033U 20055G   26134.51651505  .00000225  00000+0  19728-4 0  9991,2 46033  53.1596 180.9539 0001173  91.1973 268.9162 15.30199680318945
STARLINK-1557,46034,53.1613,0.000138,15.30194006,474.28720142594466,476.1787315366928,1 46034U 20055H   26134.38904675  .00001011  00000+0  46258-4 0  9998,2 46034  53.1613 181.5410 0001380  98.1787 261.9371 15.30194006318921
STARLINK-1558,46035,53.1597,0.0001028,15.30199244,474.51280187519933,475.9218515247685,1 46035U 20055J   26134.39642168  .00001129  00000+0  50233-4 0  9994,2 46035  53.1597 181.5070 0001028  83.6261 276.4857 15.30199244318952
STARLINK-1560,46036,53.1596,0.0001136,15.30195029,474.4513694882762,476.00845445067534,1 46036U 20055K   26134.38272741  .00000475  00000+0  28152-4 0  9998,2 46036  53.1596 181.5802 0001136  87.0546 273.0585 15.30195029318957
STARLINK-1569,46039,53.1597,0.0001173,15.30195967,474.42321164656823,476.0310108670701,1 46039U 20055N   26134.39957854  .00000934  00000+0  43649-4 0  9995,2 46039  53.1597 181.4828 0001173  87.3949 272.7186 15.30195967318942
STARLINK-1582,46043,53.1588,0.0001162,15.31707726,469.9211276878059,471.5128013491594,1 46043U 20055S   26134.50615408  .00001624  00000+0  64077-4 0  9994,2 46043  53.1588 180.6556 0001162  91.0174 269.0961 15.31707726318961
STARLINK-1591,46045,53.1575,0.0001188,15.30204424,474.3876835279907,476.0160368411707,1 46045U 20055U   26134.43224316  .00006634  00000+0  23587-3 0  9998,2 46045  53.1575 181.3361 0001188  87.7836 272.3301 15.30204424318934
STARLINK-1524,46047,53.1603,0.0001034,15.31692894,470.05300185217766,471.46935399537233,1 46047U 20055W   26134.93225296  .00002538  00000+0  93543-4 0  9992,2 46047  53.1603 165.9694 0001034  84.7218 275.3901 15.31692894319210
STARLINK-1527,46048,53.1598,0.0001169,15.31705095,469.9241753925926,471.52543928314935,1 46048U 20055X   26134.47081516  .00000833  00000+0  38595-4 0  9999,2 46048  53.1598 168.0981 0001169  99.6973 260.4161 15.31705095319119
STARLINK-1540,46051,53.1589,0.0001221,15.30198684,474.3822039934812,476.0557935283787,1 46051U 20055AA  26134.39059050  .00001079  00000+0  48536-4 0  9991,2 46051  53.1589 168.6696 0001221  94.8183 265.2958 15.30198684319140
STARLINK-1541,46052,53.1589,0.000221,15.76854038,337.8759040555524,340.84503793773365,1 46052U 20055AB  26134.90772291  .00085009  00000+0  51532-3 0  9992,2 46052  53.1589 158.4741 0002210  68.4331 291.6926 15.76854038319296
STARLINK-1543,46053,53.1591,0.000144,15.3170889,469.7272602551793,471.6997291976604,1 46053U 20055AC  26134.49411844  .00000305  00000+0  21609-4 0  9990,2 46053  53.1591 168.0053 0001440  70.2553 289.8603 15.31708890319155
